STARLINK-35499          
1 66462U 25262G   25332.58335648 -.01506273  00000+0 -96039-2 0  9992
2 66462  42.9986 154.8212 0001686 270.8566 154.0916 15.78378668  3369
STARLINK-35463          
1 66463U 25262H   25332.58335648 -.01520869  00000+0 -97822-2 0  9991
2 66463  42.9987 154.8099 0001664 267.7956 161.6366 15.78216343  3362
STARLINK-35435          
1 66464U 25262J   25332.58335648 -.01521653  00000+0 -97648-2 0  9990
2 66464  42.9987 154.8151 0001810 270.1702 157.1560 15.78266522  3362
STARLINK-35448          
1 66465U 25262K   25332.58335648 -.01587788  00000+0 -10610-1 0  9995
2 66465  42.9989 154.7936 0001499 270.6990 164.8758 15.77515726  3368
STARLINK-35388          
1 66466U 25262L   25332.58335648 -.01629254  00000+0 -10758-1 0  9994
2 66466  42.9985 154.7880 0001739 269.6720 168.2150 15.77365433  3361
STARLINK-35682          
1 66467U 25262M   25332.58335648 -.01572946  00000+0 -10452-1 0  9991
2 66467  42.9988 154.7989 0001570 268.7749 164.6093 15.77607434  3365
STARLINK-35331          
1 66468U 25262N   25332.58335648 -.01481712  00000+0 -99147-2 0  9991
2 66468  42.9987 154.7837 0001580 274.7247 165.2046 15.77266474  3368
STARLINK-35451          
1 66469U 25262P   25332.58335648 -.01571768  00000+0 -10706-1 0  9996
2 66469  42.9987 154.7670 0001584 269.0464 177.1943 15.77057941  3361
STARLINK-35655          
1 66470U 25262Q   25332.58335648 -.01567952  00000+0 -10603-1 0  9994
2 66470  42.9988 154.7774 0001736 272.0218 170.0472 15.77208060  3368
STARLINK-35569          
1 66471U 25262R   25332.58335648 -.01523679  00000+0 -10313-1 0  9991
2 66471  42.9989 154.7731 0001597 268.2764 175.9202 15.77097689  3369
STARLINK-35567          
1 66472U 25262S   25332.58335648 -.01579353  00000+0 -10804-1 0  9997
2 66472  42.9988 154.7625 0001725 270.9137 177.4636 15.76976133  3365
STARLINK-35568          
1 66473U 25262T   25332.58335648 -.01628498  00000+0 -10989-1 0  9997
2 66473  42.9988 154.7566 0001549 275.3092 175.1674 15.76883768  3361
