CCSDS_OMM_VERS = 2.0
CREATION_DATE  = 
ORIGINATOR     = 

OBJECT_NAME    = STARLINK-35499
OBJECT_ID      = 2025-262G
CENTER_NAME    = EARTH
REF_FRAME      = TEME
TIME_SYSTEM    = UTC
MEAN_ELEMENT_THEORY = SGP/SGP4

EPOCH          = 2025-11-28T14:00:01.999872
MEAN_MOTION    = 15.78378668
ECCENTRICITY   = .00016867
INCLINATION    = 42.9986
RA_OF_ASC_NODE = 154.8212
ARG_OF_PERICENTER = 270.8566
MEAN_ANOMALY   = 154.0916

EPHEMERIS_TYPE = 0
CLASSIFICATION_TYPE = U
NORAD_CAT_ID   = 66462
ELEMENT_SET_NO = 999
REV_AT_EPOCH   = 336
BSTAR          = -.96038758E-2
MEAN_MOTION_DOT = -.1506273E-1
MEAN_MOTION_DDOT = 0

CCSDS_OMM_VERS = 2.0
CREATION_DATE  = 
ORIGINATOR     = 

OBJECT_NAME    = STARLINK-35463
OBJECT_ID      = 2025-262H
CENTER_NAME    = EARTH
REF_FRAME      = TEME
TIME_SYSTEM    = UTC
MEAN_ELEMENT_THEORY = SGP/SGP4

EPOCH          = 2025-11-28T14:00:01.999872
MEAN_MOTION    = 15.78216343
ECCENTRICITY   = .00016643
INCLINATION    = 42.9987
RA_OF_ASC_NODE = 154.8099
ARG_OF_PERICENTER = 267.7956
MEAN_ANOMALY   = 161.6366

EPHEMERIS_TYPE = 0
CLASSIFICATION_TYPE = U
NORAD_CAT_ID   = 66463
ELEMENT_SET_NO = 999
REV_AT_EPOCH   = 336
BSTAR          = -.97822431E-2
MEAN_MOTION_DOT = -.1520869E-1
MEAN_MOTION_DDOT = 0

CCSDS_OMM_VERS = 2.0
CREATION_DATE  = 
ORIGINATOR     = 

OBJECT_NAME    = STARLINK-35435
OBJECT_ID      = 2025-262J
CENTER_NAME    = EARTH
REF_FRAME      = TEME
TIME_SYSTEM    = UTC
MEAN_ELEMENT_THEORY = SGP/SGP4

EPOCH          = 2025-11-28T14:00:01.999872
MEAN_MOTION    = 15.78266522
ECCENTRICITY   = .000181
INCLINATION    = 42.9987
RA_OF_ASC_NODE = 154.8151
ARG_OF_PERICENTER = 270.1702
MEAN_ANOMALY   = 157.1560

EPHEMERIS_TYPE = 0
CLASSIFICATION_TYPE = U
NORAD_CAT_ID   = 66464
ELEMENT_SET_NO = 999
REV_AT_EPOCH   = 336
BSTAR          = -.97648402E-2
MEAN_MOTION_DOT = -.1521653E-1
MEAN_MOTION_DDOT = 0

CCSDS_OMM_VERS = 2.0
CREATION_DATE  = 
ORIGINATOR     = 

OBJECT_NAME    = STARLINK-35448
OBJECT_ID      = 2025-262K
CENTER_NAME    = EARTH
REF_FRAME      = TEME
TIME_SYSTEM    = UTC
MEAN_ELEMENT_THEORY = SGP/SGP4

EPOCH          = 2025-11-28T14:00:01.999872
MEAN_MOTION    = 15.77515726
ECCENTRICITY   = .00014993
INCLINATION    = 42.9989
RA_OF_ASC_NODE = 154.7936
ARG_OF_PERICENTER = 270.6990
MEAN_ANOMALY   = 164.8758

EPHEMERIS_TYPE = 0
CLASSIFICATION_TYPE = U
NORAD_CAT_ID   = 66465
ELEMENT_SET_NO = 999
REV_AT_EPOCH   = 336
BSTAR          = -.1060996E-1
MEAN_MOTION_DOT = -.1587788E-1
MEAN_MOTION_DDOT = 0

CCSDS_OMM_VERS = 2.0
CREATION_DATE  = 
ORIGINATOR     = 

OBJECT_NAME    = STARLINK-35388
OBJECT_ID      = 2025-262L
CENTER_NAME    = EARTH
REF_FRAME      = TEME
TIME_SYSTEM    = UTC
MEAN_ELEMENT_THEORY = SGP/SGP4

EPOCH          = 2025-11-28T14:00:01.999872
MEAN_MOTION    = 15.77365433
ECCENTRICITY   = .00017392
INCLINATION    = 42.9985
RA_OF_ASC_NODE = 154.7880
ARG_OF_PERICENTER = 269.6720
MEAN_ANOMALY   = 168.2150

EPHEMERIS_TYPE = 0
CLASSIFICATION_TYPE = U
NORAD_CAT_ID   = 66466
ELEMENT_SET_NO = 999
REV_AT_EPOCH   = 336
BSTAR          = -.10757547E-1
MEAN_MOTION_DOT = -.1629254E-1
MEAN_MOTION_DDOT = 0

CCSDS_OMM_VERS = 2.0
CREATION_DATE  = 
ORIGINATOR     = 

OBJECT_NAME    = STARLINK-35682
OBJECT_ID      = 2025-262M
CENTER_NAME    = EARTH
REF_FRAME      = TEME
TIME_SYSTEM    = UTC
MEAN_ELEMENT_THEORY = SGP/SGP4

EPOCH          = 2025-11-28T14:00:01.999872
MEAN_MOTION    = 15.77607434
ECCENTRICITY   = .00015709
INCLINATION    = 42.9988
RA_OF_ASC_NODE = 154.7989
ARG_OF_PERICENTER = 268.7749
MEAN_ANOMALY   = 164.6093

EPHEMERIS_TYPE = 0
CLASSIFICATION_TYPE = U
NORAD_CAT_ID   = 66467
ELEMENT_SET_NO = 999
REV_AT_EPOCH   = 336
BSTAR          = -.10452167E-1
MEAN_MOTION_DOT = -.1572946E-1
MEAN_MOTION_DDOT = 0

CCSDS_OMM_VERS = 2.0
CREATION_DATE  = 
ORIGINATOR     = 

OBJECT_NAME    = STARLINK-35331
OBJECT_ID      = 2025-262N
CENTER_NAME    = EARTH
REF_FRAME      = TEME
TIME_SYSTEM    = UTC
MEAN_ELEMENT_THEORY = SGP/SGP4

EPOCH          = 2025-11-28T14:00:01.999872
MEAN_MOTION    = 15.77266474
ECCENTRICITY   = .00015804
INCLINATION    = 42.9987
RA_OF_ASC_NODE = 154.7837
ARG_OF_PERICENTER = 274.7247
MEAN_ANOMALY   = 165.2046

EPHEMERIS_TYPE = 0
CLASSIFICATION_TYPE = U
NORAD_CAT_ID   = 66468
ELEMENT_SET_NO = 999
REV_AT_EPOCH   = 336
BSTAR          = -.99146543E-2
MEAN_MOTION_DOT = -.1481712E-1
MEAN_MOTION_DDOT = 0

CCSDS_OMM_VERS = 2.0
CREATION_DATE  = 
ORIGINATOR     = 

OBJECT_NAME    = STARLINK-35451
OBJECT_ID      = 2025-262P
CENTER_NAME    = EARTH
REF_FRAME      = TEME
TIME_SYSTEM    = UTC
MEAN_ELEMENT_THEORY = SGP/SGP4

EPOCH          = 2025-11-28T14:00:01.999872
MEAN_MOTION    = 15.77057941
ECCENTRICITY   = .00015846
INCLINATION    = 42.9987
RA_OF_ASC_NODE = 154.7670
ARG_OF_PERICENTER = 269.0464
MEAN_ANOMALY   = 177.1943

EPHEMERIS_TYPE = 0
CLASSIFICATION_TYPE = U
NORAD_CAT_ID   = 66469
ELEMENT_SET_NO = 999
REV_AT_EPOCH   = 336
BSTAR          = -.10705801E-1
MEAN_MOTION_DOT = -.1571768E-1
MEAN_MOTION_DDOT = 0

CCSDS_OMM_VERS = 2.0
CREATION_DATE  = 
ORIGINATOR     = 

OBJECT_NAME    = STARLINK-35655
OBJECT_ID      = 2025-262Q
CENTER_NAME    = EARTH
REF_FRAME      = TEME
TIME_SYSTEM    = UTC
MEAN_ELEMENT_THEORY = SGP/SGP4

EPOCH          = 2025-11-28T14:00:01.999872
MEAN_MOTION    = 15.77208060
ECCENTRICITY   = .0001736
INCLINATION    = 42.9988
RA_OF_ASC_NODE = 154.7774
ARG_OF_PERICENTER = 272.0218
MEAN_ANOMALY   = 170.0472

EPHEMERIS_TYPE = 0
CLASSIFICATION_TYPE = U
NORAD_CAT_ID   = 66470
ELEMENT_SET_NO = 999
REV_AT_EPOCH   = 336
BSTAR          = -.10603001E-1
MEAN_MOTION_DOT = -.1567952E-1
MEAN_MOTION_DDOT = 0

CCSDS_OMM_VERS = 2.0
CREATION_DATE  = 
ORIGINATOR     = 

OBJECT_NAME    = STARLINK-35569
OBJECT_ID      = 2025-262R
CENTER_NAME    = EARTH
REF_FRAME      = TEME
TIME_SYSTEM    = UTC
MEAN_ELEMENT_THEORY = SGP/SGP4

EPOCH          = 2025-11-28T14:00:01.999872
MEAN_MOTION    = 15.77097689
ECCENTRICITY   = .00015977
INCLINATION    = 42.9989
RA_OF_ASC_NODE = 154.7731
ARG_OF_PERICENTER = 268.2764
MEAN_ANOMALY   = 175.9202

EPHEMERIS_TYPE = 0
CLASSIFICATION_TYPE = U
NORAD_CAT_ID   = 66471
ELEMENT_SET_NO = 999
REV_AT_EPOCH   = 336
BSTAR          = -.10313154E-1
MEAN_MOTION_DOT = -.1523679E-1
MEAN_MOTION_DDOT = 0

CCSDS_OMM_VERS = 2.0
CREATION_DATE  = 
ORIGINATOR     = 

OBJECT_NAME    = STARLINK-35567
OBJECT_ID      = 2025-262S
CENTER_NAME    = EARTH
REF_FRAME      = TEME
TIME_SYSTEM    = UTC
MEAN_ELEMENT_THEORY = SGP/SGP4

EPOCH          = 2025-11-28T14:00:01.999872
MEAN_MOTION    = 15.76976133
ECCENTRICITY   = .00017252
INCLINATION    = 42.9988
RA_OF_ASC_NODE = 154.7625
ARG_OF_PERICENTER = 270.9137
MEAN_ANOMALY   = 177.4636

EPHEMERIS_TYPE = 0
CLASSIFICATION_TYPE = U
NORAD_CAT_ID   = 66472
ELEMENT_SET_NO = 999
REV_AT_EPOCH   = 336
BSTAR          = -.10804065E-1
MEAN_MOTION_DOT = -.1579353E-1
MEAN_MOTION_DDOT = 0

CCSDS_OMM_VERS = 2.0
CREATION_DATE  = 
ORIGINATOR     = 

OBJECT_NAME    = STARLINK-35568
OBJECT_ID      = 2025-262T
CENTER_NAME    = EARTH
REF_FRAME      = TEME
TIME_SYSTEM    = UTC
MEAN_ELEMENT_THEORY = SGP/SGP4

EPOCH          = 2025-11-28T14:00:01.999872
MEAN_MOTION    = 15.76883768
ECCENTRICITY   = .00015491
INCLINATION    = 42.9988
RA_OF_ASC_NODE = 154.7566
ARG_OF_PERICENTER = 275.3092
MEAN_ANOMALY   = 175.1674

EPHEMERIS_TYPE = 0
CLASSIFICATION_TYPE = U
NORAD_CAT_ID   = 66473
ELEMENT_SET_NO = 999
REV_AT_EPOCH   = 336
BSTAR          = -.10988748E-1
MEAN_MOTION_DOT = -.1628498E-1
MEAN_MOTION_DDOT = 0

